[{"OBJECT_NAME":"STARLINK-5001","OBJECT_ID":"2022-119AQ","EPOCH":"2026-03-09T22:28:24.991968","MEAN_MOTION":15.08841945,"ECCENTRICITY":0.00014305,"INCLINATION":53.218,"RA_OF_ASC_NODE":307.9208,"ARG_OF_PERICENTER":71.2207,"MEAN_ANOMALY":288.894,"EPHEMERIS_TYPE":0,"CLASSIFICATION_TYPE":"U","NORAD_CAT_ID":53924,"ELEMENT_SET_NO":999,"REV_AT_EPOCH":19193,"BSTAR":-9.6157917e-5,"MEAN_MOTION_DOT":-1.818e-5,"MEAN_MOTION_DDOT":0},{"OBJECT_NAME":"OBJECT BE","OBJECT_ID":"2018-099BE","EPOCH":"2026-03-09T15:10:24.322944","MEAN_MOTION":15.09972337,"ECCENTRICITY":0.0006427,"INCLINATION":97.4031,"RA_OF_ASC_NODE":111.7891,"ARG_OF_PERICENTER":340.4925,"MEAN_ANOMALY":19.6058,"EPHEMERIS_TYPE":0,"CLASSIFICATION_TYPE":"U","NORAD_CAT_ID":43810,"ELEMENT_SET_NO":999,"REV_AT_EPOCH":39698,"BSTAR":0.00027209,"MEAN_MOTION_DOT":4.358e-5,"MEAN_MOTION_DDOT":0}]
